STARLINK-1559           
1 46077U 20055BC  26068.23360559  .00042685  00000+0  14779-2 0  9995
2 46077  53.0254  76.0659 0004229  33.9710 326.1559 15.29461733309518
STARLINK-33622          
1 63066U 25035Q   26068.56429284  .00030881  00000+0  11273-2 0  9993
2 63066  42.9986 147.5140 0001645 287.0242  73.0429 15.27571395 59716
